CUTE-1 (CO-55)          
1 27844U 03031E   21004.07171346  .00000050  00000-0  41972-4 0  9990
2 27844  98.6816  14.7714 0009690 188.8893 171.2114 14.22280093908654
CUBESAT XI-IV (CO-57)   
1 27848U 03031J   21003.94585611  .00000034  00000-0  35341-4 0  9998
2 27848  98.6876  15.2152 0009341 202.4222 157.6549 14.21861135908435
CUBESAT XI-V            
1 28895U 05043F   21003.90200111  .00000155  00000-0  38646-4 0  9996
2 28895  98.0350 140.9925 0016892  13.4752 346.6898 14.63849827809932
CUTE-1.7+APD II (CO-65) 
1 32785U 08021C   21004.19136435  .00000283  00000-0  35953-4 0  9997
2 32785  97.5932 349.6070 0012851 181.1386 178.9805 14.88604254687805
AAUSAT-II               
1 32788U 08021F   21003.95586177  .00000921  00000-0  88386-4 0  9992
2 32788  97.4972   5.6234 0013318 100.9119 259.3601 14.95332240689377
DELFI-C3 (DO-64)        
1 32789U 08021G   21004.39203935  .00001910  00000-0  12671-3 0  9992
2 32789  97.3962  45.9677 0011528 354.0127   6.0962 15.08357580692196
SEEDS II (CO-66)        
1 32791U 08021J   21003.84263800  .00000570  00000-0  62583-4 0  9990
2 32791  97.5564 355.3237 0013906 149.1763 211.0276 14.91236483688325
SWISSCUBE               
1 35932U 09051B   21004.51127848  .00000146  00000-0  43963-4 0  9990
2 35932  98.6065 199.2910 0006798 225.2953 134.7691 14.56472437599138
BEESAT-1                
1 35933U 09051C   21003.79686484  .00000125  00000-0  39030-4 0  9993
2 35933  98.6044 200.4117 0004809 241.0695 119.0019 14.56538090599060
ITUPSAT1                
1 35935U 09051E   21004.04701021  .00000083  00000-0  30182-4 0  9991
2 35935  98.6148 200.8387 0007138 241.8664 118.1812 14.55676580598888
TISAT 1                 
1 36799U 10035E   21003.76813913  .00000487  00000-0  54641-4 0  9990
2 36799  98.2015 187.9318 0012927  38.5094 321.7043 14.91559303568782
M-CUBED & EXP-1 PRIME   
1 37855U 11061F   21004.47075383  .00002288  00000-0  11802-3 0  9996
2 37855 101.7263 202.8232 0168747 198.1380 161.3767 15.07038541501946
AEROCUBE 4.5A           
1 38767U 12048K   21003.90811121  .00000595  00000-0  63725-4 0  9991
2 38767  64.6669 329.4642 0136104  63.1413 298.3537 14.92527573 71711
AEROCUBE 4.5B           
1 38768U 12048L   21004.48973086  .00001001  00000-0  89532-4 0  9992
2 38768  64.6675 292.5892 0127044  57.3597 303.9701 14.96300202 71951
STRAND-1                
1 39090U 13009E   21004.49891812  .00000035  00000-0  27383-4 0  9998
2 39090  98.4370 210.4384 0009995  51.1998 309.0078 14.35162366411540
SOMP                    
1 39134U 13015E   21003.93602020  .00001932  00000-0  93453-4 0  9991
2 39134  64.8648 347.1594 0014119 219.1091 140.9018 15.21830640426173
BEESAT-3                
1 39135U 13015F   21004.45299831  .00001717  00000-0  91399-4 0  9990
2 39135  64.8669  12.0424 0020054 210.2177 149.7795 15.18793065426128
BEESAT-2                
1 39136U 13015G   21003.52690309  .00001476  00000-0  80936-4 0  9990
2 39136  64.8744  20.7635 0030336 264.0988  95.6681 15.18171117425472
NEE-01 PEGASO           
1 39151U 13018B   21004.23811580  .00000226  00000-0  36590-4 0  9994
2 39151  97.9770 107.7378 0017403 165.8825 194.2876 14.80265454415380
ESTCUBE 1               
1 39161U 13021C   21004.50798840  .00000230  00000-0  43998-4 0  9997
2 39161  97.9539  89.3844 0008718 322.6864  37.3737 14.72406514411623
POPACS 1                
1 39268U 13055D   21004.22874923  .00003652  00000-0  98815-4 0  9997
2 39268  81.0018  83.6684 0608994 345.2517  13.1557 14.41139170378366
POPACS 2                
1 39269U 13055E   21004.04534725  .00002392  00000-0  66136-4 0  9992
2 39269  81.0144 126.6426 0673108  96.5298 271.2915 14.26814837375792
POPACS 3                
1 39270U 13055F   21003.70321267  .00003527  00000-0  10856-3 0  9999
2 39270  81.0153 151.4708 0706709 167.4567 194.5285 14.17711726353497
ZACUBE-1 (TSHEPISOSAT)  
1 39417U 13066B   21004.45691460  .00000353  00000-0  50335-4 0  9993
2 39417  97.5783 357.4402 0058227 340.2486  19.6473 14.81401111384794
WNISAT-1                
1 39423U 13066H   21004.51925516  .00000206  00000-0  50691-4 0  9991
2 39423  97.8028 278.2530 0175068 348.9346  10.8027 14.53175216377626
TRITON-1                
1 39427U 13066M   21004.40950104  .00000236  00000-0  45182-4 0  9996
2 39427  97.7549 320.4856 0114052 154.7542 205.9299 14.68126052381347
GOMX-1                  
1 39430U 13066Q   21004.54924201  .00000286  00000-0  61106-4 0  9993
2 39430  97.8071 297.0874 0149424 271.2558  87.1511 14.59517522379131
CUBEBUG-2 (LO-74)       
1 39440U 13066AA  21003.94235946  .00000359  00000-0  56282-4 0  9998
2 39440  97.6554 341.6290 0081127  50.0388 310.7912 14.76132014382157
NEE-02 KRYSAOR          
1 39441U 13066AB  21003.88762680  .00000241  00000-0  40915-4 0  9998
2 39441  97.6640 338.9903 0082868  60.1478 300.7936 14.75102138381954
FUNCUBE-1 (AO-73)       
1 39444U 13066AE  21004.47250936  .00000439  00000-0  59934-4 0  9993
2 39444  97.5706 359.7772 0057087 331.3521  28.4560 14.82284004383737
UWE-3                   
1 39446U 13066AG  21004.46742553  .00000374  00000-0  55758-4 0  9993
2 39446  97.6186 349.2103 0070221  15.2854 345.0457 14.78668456382864
AEROCUBE 5A             
1 39465U 13072D   21003.68694479  .00004410  00000-0  35049-3 0  9992
2 39465 120.4955 169.4085 0265633  90.3245 272.8248 14.79073093 70953
AEROCUBE 5B             
1 39466U 13072E   21003.83322231  .00005113  00000-0  33910-3 0  9990
2 39466 120.4726 217.8148 0235848 100.6669 262.1038 14.89344495 71383
BRITE-CA1 (TORONTO)     
1 40020U 14033L   21004.46606951  .00000099  00000-0  25041-4 0  9995
2 40020  97.7299 187.2045 0088050 150.4287 210.1939 14.66695061350238
DUCHIFAT-1              
1 40021U 14033M   21003.87270100  .00000487  00000-0  54972-4 0  9999
2 40021  97.9592 302.4931 0012745 353.5409   6.5642 14.91131256355751
NANOSATC-BR1            
1 40024U 14033Q   21004.34485444  .00000554  00000-0  62949-4 0  9992
2 40024  97.9407 298.6591 0012156 357.4836   2.6318 14.90264689355674
QB50P1                  
1 40025U 14033R   21004.35669585  .00000443  00000-0  52721-4 0  9998
2 40025  97.9255 294.7156 0012557   5.0663 355.0678 14.89296308355506
QB50P2                  
1 40032U 14033Y   21003.86562352  .00000404  00000-0  49110-4 0  9990
2 40032  97.9116 291.2283 0011946   4.2515 355.8801 14.88813101354804
PERSEUS-M2              
1 40037U 14033AD  21004.18283304  .00000129  00000-0  20804-4 0  9991
2 40037  97.8907 284.9908 0014865  19.5622 340.6161 14.86611606354984
PERSEUS-M1              
1 40039U 14033AF  21003.83963423  .00000136  00000-0  21694-4 0  9997
2 40039  97.8857 283.2012 0014689  19.1145 341.0619 14.86232777354338
POLYITAN-1              
1 40042U 14033AJ  21003.84822963  .00000498  00000-0  58808-4 0  9993
2 40042  97.9344 294.8775 0014586 356.9115   3.2009 14.89070536354812
TIGRISAT                
1 40043U 14033AK  21004.16529159  .00000162  00000-0  30877-4 0  9995
2 40043  97.6852 216.4635 0061189  70.2104 290.5689 14.74461635351926
AEROCUBE 6A             
1 40045U 14033AM  21004.33296927  .00000343  00000-0  55891-4 0  9994
2 40045  97.7103 223.0944 0058937  60.2126 300.4928 14.75708444351970
AEROCUBE 6B             
1 40046U 14033AN  21004.13954065  .00000373  00000-0  60284-4 0  9992
2 40046  97.7003 221.9459 0058083  59.9845 300.7111 14.75714014352083
UKUBE-1                 
1 40074U 14037F   21004.52064397  .00000424  00000-0  57571-4 0  9992
2 40074  98.4435 210.7781 0004160 181.2606 178.8587 14.84425115351582
BRITE-PL2 (HEWELIUSZ)   
1 40119U 14049B   21003.84134751  .00000200  00000-0  30074-4 0  9992
2 40119  97.8923 100.0706 0017661 169.8407 190.3168 14.84584243345424
FIREBIRD 4              
1 40378U 15003C   21004.35273753  .00002299  00000-0  88764-4 0  9992
2 40378  99.0843 111.7448 0120836   2.9046 357.2859 15.21231527327846
GRIFEX                  
1 40379U 15003D   21004.36430145  .00001673  00000-0  71976-4 0  9996
2 40379  99.0857 102.4028 0131114  31.7944 329.1116 15.17220555327300
EXOCUBE (CP10)          
1 40380U 15003E   21004.18336485  .00001359  00000-0  62188-4 0  9996
2 40380  99.0902  97.2367 0136751  49.2985 312.0028 15.15046700326949
AEROCUBE 8A             
1 40659U 15025J   21003.91632925  .00022557  00000-0  18668-3 0  9993
2 40659  55.0133  80.5500 0085443 341.6490  18.1472 15.65479933 74851
AEROCUBE 8B             
1 40660U 15025K   21004.47710214  .00022956  00000-0  18600-3 0  9994
2 40660  55.0103  75.1929 0084503 345.6820  14.1826 15.66056581 74964
TIANWANG 1C (TW-1C)     
1 40926U 15051B   21004.43767693  .00100077  00000-0  41289-3 0  9997
2 40926  97.0524  65.0041 0002899  45.3072 325.7999 15.85632216298603
TIANWANG 1A (TW-1A)     
1 40928U 15051D   21004.54733186  .00004426  00000-0  98203-4 0  9991
2 40928  97.0924  33.4409 0010494 162.7241 324.3909 15.44183141296380
EXACTVIEW 9             
1 40936U 15052G   21004.24513937  .00000818  00000-0  25052-4 0  9991
2 40936   6.0050 348.4745 0010853 226.8519 133.0701 14.76639449284912
AEROCUBE 5C             
1 40965U 15058B   21003.97540686  .00000220  00000-0  44107-4 0  9998
2 40965  64.7772 256.5511 0187218   2.7452 357.4631 14.74646586 70873
AEROCUBE 7              
1 40966U 15058C   21003.91346959  .00000306  00000-0  53506-4 0  9998
2 40966  64.7770 254.9271 0186170   2.4236 357.7725 14.74975265 70876
ATHENOXAT 1             
1 41168U 15077C   21004.42927536  .00003047  00000-0  12174-3 0  9997
2 41168  14.9912  26.3175 0011530  46.6159 350.6411 15.15041487279861
GALASSIA                
1 41170U 15077E   21003.70863096  .00002426  00000-0  88765-4 0  9990
2 41170  14.9903  22.7701 0012358  65.4184 294.7424 15.15306872279757
VELOX-II                
1 41171U 15077F   21004.27689850  .00001996  00000-0  74437-4 0  9990
2 41171  14.9919  70.0766 0008674 315.7151  44.2475 15.12127788279436
